{"type": "FeatureCollection", "features": [ {"type": "Feature", "properties": {"norad_id": 37562, "name": "IRIDIUM 33 DEB", "group": "iridium-33-debris", "lat": 0.586903380690041, "lon": -142.7913820965473, "alt_km": 715.6565274110844, "timestamp": "2025-12-27T07:26:25.606339+00:00", "meta": {"OBJECT_NAME": "IRIDIUM 33 DEB", "OBJECT_ID": "1997-051XX", "EPOCH": "2025-12-26T21:32:35.047104", "MEAN_MOTION": 14.56599093, "ECCENTRICITY": 0.00261671, "INCLINATION": 86.3734, "RA_OF_ASC_NODE": 37.4257, "ARG_OF_PERICENTER": 63.296, "MEAN_ANOMALY": 114.6437, "EPHEMERIS_TYPE": 0, "CLASSIFICATION_TYPE": "U", "NORAD_CAT_ID": 37562, "ELEMENT_SET_NO": 999, "REV_AT_EPOCH": 86534, "BSTAR": 0.0012110611, "MEAN_MOTION_DOT": 5.442e-05, "MEAN_MOTION_DDOT": 0}, "tle": {"line1": "1 37562U 97051XX  25360.89762786  .00005442  00000+0  12111-2 0  9996", "line2": "2 37562  86.3734  37.4257 0026167  63.2960 114.6437 14.56599093865345"}}, "geometry": {"type": "Point", "coordinates": [-142.7913820965473, 0.586903380690041]}}, {"type": "Feature", "properties": {"norad_id": 37565, "name": "IRIDIUM 33 DEB", "group": "iridium-33-debris", "lat": 58.16318892363624, "lon": 9.13103913936853, "alt_km": 705.1858852355863, "timestamp": "2025-12-27T07:26:25.606355+00:00", "meta": {"OBJECT_NAME": "IRIDIUM 33 DEB", "OBJECT_ID": "1997-051YA", "EPOCH": "2025-12-26T17:56:16.184256", "MEAN_MOTION": 14.51576066, "ECCENTRICITY": 0.00144436, "INCLINATION": 86.3492, "RA_OF_ASC_NODE": 3.4741, "ARG_OF_PERICENTER": 43.044, "MEAN_ANOMALY": 317.1892, "EPHEMERIS_TYPE": 0, "CLASSIFICATION_TYPE": "U", "NORAD_CAT_ID": 37565, "ELEMENT_SET_NO": 999, "REV_AT_EPOCH": 66040, "BSTAR": 0.00060552562, "MEAN_MOTION_DOT": 2.446e-05, "MEAN_MOTION_DDOT": 0}, "tle": {"line1": "1 37565U 97051YA  25360.74740954  .00002446  00000+0  60553-3 0  9991", "line2": "2 37565  86.3492   3.4741 0014443  43.0440 317.1892 14.51576066660408"}}, "geometry": {"type": "Point", "coordinates": [9.13103913936853, 58.16318892363624]}}, {"type": "Feature", "properties": {"norad_id": 38017, "name": "IRIDIUM 33 DEB", "group": "iridium-33-debris", "lat": 25.56548932015435, "lon": 161.647193628156, "alt_km": 669.5502685287056, "timestamp": "2025-12-27T07:26:25.606371+00:00", "meta": {"OBJECT_NAME": "IRIDIUM 33 DEB", "OBJECT_ID": "1997-051YD", "EPOCH": "2025-12-26T09:47:07.846080", "MEAN_MOTION": 14.49460166, "ECCENTRICITY": 0.0091237, "INCLINATION": 86.3416, "RA_OF_ASC_NODE": 160.2858, "ARG_OF_PERICENTER": 57.374, "MEAN_ANOMALY": 303.6228, "EPHEMERIS_TYPE": 0, "CLASSIFICATION_TYPE": "U", "NORAD_CAT_ID": 38017, "ELEMENT_SET_NO": 999, "REV_AT_EPOCH": 61600, "BSTAR": 0.0041186, "MEAN_MOTION_DOT": 0.00016672, "MEAN_MOTION_DDOT": 0}, "tle": {"line1": "1 38017U 97051YD  25360.40772970  .00016672  00000+0  41186-2 0  9996", "line2": "2 38017  86.3416 160.2858 0091237  57.3740 303.6228 14.49460166616005"}}, "geometry": {"type": "Point", "coordinates": [161.647193628156, 25.56548932015435]}}, {"type": "Feature", "properties": {"norad_id": 38022, "name": "IRIDIUM 33 DEB", "group": "iridium-33-debris", "lat": 67.5888816528947, "lon": -179.04375124703233, "alt_km": 757.9277515286212, "timestamp": "2025-12-27T07:26:25.606388+00:00", "meta": {"OBJECT_NAME": "IRIDIUM 33 DEB", "OBJECT_ID": "1997-051YJ", "EPOCH": "2025-12-23T07:57:08.773056", "MEAN_MOTION": 14.41313849, "ECCENTRICITY": 0.00453843, "INCLINATION": 86.2683, "RA_OF_ASC_NODE": 11.8042, "ARG_OF_PERICENTER": 16.2864, "MEAN_ANOMALY": 343.9781, "EPHEMERIS_TYPE": 0, "CLASSIFICATION_TYPE": "U", "NORAD_CAT_ID": 38022, "ELEMENT_SET_NO": 999, "REV_AT_EPOCH": 69346, "BSTAR": 0.0010847612, "MEAN_MOTION_DOT": 3.57e-05, "MEAN_MOTION_DDOT": 0}, "tle": {"line1": "1 38022U 97051YJ  25357.33135154  .00003570  00000+0  10848-2 0  9991", "line2": "2 38022  86.2683  11.8042 0045384  16.2864 343.9781 14.41313849693468"}}, "geometry": {"type": "Point", "coordinates": [-179.04375124703233, 67.5888816528947]}}, {"type": "Feature", "properties": {"norad_id": 38028, "name": "IRIDIUM 33 DEB", "group": "iridium-33-debris", "lat": 28.000325738884293, "lon": 171.97760774992128, "alt_km": 732.3615219543826, "timestamp": "2025-12-27T07:26:25.606404+00:00", "meta": {"OBJECT_NAME": "IRIDIUM 33 DEB", "OBJECT_ID": "1997-051YQ", "EPOCH": "2025-12-19T17:44:22.316352", "MEAN_MOTION": 14.46188799, "ECCENTRICITY": 0.0030512, "INCLINATION": 86.3252, "RA_OF_ASC_NODE": 357.2262, "ARG_OF_PERICENTER": 99.065, "MEAN_ANOMALY": 261.4007, "EPHEMERIS_TYPE": 0, "CLASSIFICATION_TYPE": "U", "NORAD_CAT_ID": 38028, "ELEMENT_SET_NO": 999, "REV_AT_EPOCH": 65596, "BSTAR": 0.00016660929, "MEAN_MOTION_DOT": 6.2e-06, "MEAN_MOTION_DDOT": 0}, "tle": {"line1": "1 38028U 97051YQ  25353.73914718  .00000620  00000+0  16661-3 0  9991", "line2": "2 38028  86.3252 357.2262 0030512  99.0650 261.4007 14.46188799655964"}}, "geometry": {"type": "Point", "coordinates": [171.97760774992128, 28.000325738884293]}}, {"type": "Feature", "properties": {"norad_id": 38228, "name": "IRIDIUM 33 DEB", "group": "iridium-33-debris", "lat": 4.4348782506378885, "lon": -138.01317998647184, "alt_km": 763.8668946052403, "timestamp": "2025-12-27T07:26:25.606423+00:00", "meta": {"OBJECT_NAME": "IRIDIUM 33 DEB", "OBJECT_ID": "1997-051ZC", "EPOCH": "2025-12-20T22:20:09.818016", "MEAN_MOTION": 14.2727844, "ECCENTRICITY": 0.0065198, "INCLINATION": 86.2935, "RA_OF_ASC_NODE": 44.9869, "ARG_OF_PERICENTER": 163.0896, "MEAN_ANOMALY": 14.0405, "EPHEMERIS_TYPE": 0, "CLASSIFICATION_TYPE": "U", "NORAD_CAT_ID": 38228, "ELEMENT_SET_NO": 999, "REV_AT_EPOCH": 84898, "BSTAR": 0.00020665, "MEAN_MOTION_DOT": 5.36e-06, "MEAN_MOTION_DDOT": 0}, "tle": {"line1": "1 38228U 97051ZC  25354.93066919  .00000536  00000+0  20665-3 0  9992", "line2": "2 38228  86.2935  44.9869 0065198 163.0896  14.0405 14.27278440848980"}}, "geometry": {"type": "Point", "coordinates": [-138.01317998647184, 4.4348782506378885]}}, {"type": "Feature", "properties": {"norad_id": 38241, "name": "IRIDIUM 33 DEB", "group": "iridium-33-debris", "lat": 75.45446432148977, "lon": 149.8242616330469, "alt_km": 700.914356349952, "timestamp": "2025-12-27T07:26:25.606437+00:00", "meta": {"OBJECT_NAME": "IRIDIUM 33 DEB", "OBJECT_ID": "1997-051ZR", "EPOCH": "2025-12-26T17:45:34.343712", "MEAN_MOTION": 14.54955887, "ECCENTRICITY": 0.00047659, "INCLINATION": 86.324, "RA_OF_ASC_NODE": 344.4214, "ARG_OF_PERICENTER": 42.5288, "MEAN_ANOMALY": 317.6287, "EPHEMERIS_TYPE": 0, "CLASSIFICATION_TYPE": "U", "NORAD_CAT_ID": 38241, "ELEMENT_SET_NO": 999, "REV_AT_EPOCH": 60404, "BSTAR": 0.0008649973, "MEAN_MOTION_DOT": 3.741e-05, "MEAN_MOTION_DDOT": 0}, "tle": {"line1": "1 38241U 97051ZR  25360.73998083  .00003741  00000+0  86500-3 0  9999", "line2": "2 38241  86.3240 344.4214 0004765  42.5288 317.6287 14.54955887604040"}}, "geometry": {"type": "Point", "coordinates": [149.8242616330469, 75.45446432148977]}}, {"type": "Feature", "properties": {"norad_id": 38474, "name": "IRIDIUM 33 DEB", "group": "iridium-33-debris", "lat": 17.154315355886546, "lon": 4.845955420089046, "alt_km": 705.8732762358459, "timestamp": "2025-12-27T07:26:25.606447+00:00", "meta": {"OBJECT_NAME": "IRIDIUM 33 DEB", "OBJECT_ID": "1997-051AAB", "EPOCH": "2025-12-21T07:20:31.212384", "MEAN_MOTION": 14.50718538, "ECCENTRICITY": 0.00276153, "INCLINATION": 86.3426, "RA_OF_ASC_NODE": 6.3307, "ARG_OF_PERICENTER": 61.1056, "MEAN_ANOMALY": 299.2914, "EPHEMERIS_TYPE": 0, "CLASSIFICATION_TYPE": "U", "NORAD_CAT_ID": 38474, "ELEMENT_SET_NO": 999, "REV_AT_EPOCH": 65442, "BSTAR": 0.00039085525, "MEAN_MOTION_DOT": 1.564e-05, "MEAN_MOTION_DDOT": 0}, "tle": {"line1": "1 38474U 97051AAB 25355.30591681  .00001564  00000+0  39086-3 0  9995", "line2": "2 38474  86.3426   6.3307 0027615  61.1056 299.2914 14.50718538654425"}}, "geometry": {"type": "Point", "coordinates": [4.845955420089046, 17.154315355886546]}}, {"type": "Feature", "properties": {"norad_id": 39777, "name": "IRIDIUM 33 DEB", "group": "iridium-33-debris", "lat": 11.365073611900366, "lon": 168.78675540709412, "alt_km": 730.3038151482897, "timestamp": "2025-12-27T07:26:25.606458+00:00", "meta": {"OBJECT_NAME": "IRIDIUM 33 DEB", "OBJECT_ID": "1997-051AAJ", "EPOCH": "2025-12-26T21:29:47.807808", "MEAN_MOTION": 14.56768068, "ECCENTRICITY": 0.00605598, "INCLINATION": 85.9637, "RA_OF_ASC_NODE": 168.1747, "ARG_OF_PERICENTER": 139.2248, "MEAN_ANOMALY": 221.3516, "EPHEMERIS_TYPE": 0, "CLASSIFICATION_TYPE": "U", "NORAD_CAT_ID": 39777, "ELEMENT_SET_NO": 999, "REV_AT_EPOCH": 60391, "BSTAR": 0.0035267705, "MEAN_MOTION_DOT": 0.00016216, "MEAN_MOTION_DDOT": 0}, "tle": {"line1": "1 39777U 97051AAJ 25360.89569222  .00016216  00000+0  35268-2 0  9995", "line2": "2 39777  85.9637 168.1747 0060559 139.2248 221.3516 14.56768068603911"}}, "geometry": {"type": "Point", "coordinates": [168.78675540709412, 11.365073611900366]}}, {"type": "Feature", "properties": {"norad_id": 39778, "name": "IRIDIUM 33 DEB", "group": "iridium-33-debris", "lat": 85.48881859750404, "lon": 90.32427476311057, "alt_km": 704.1701432158088, "timestamp": "2025-12-27T07:26:25.606468+00:00", "meta": {"OBJECT_NAME": "IRIDIUM 33 DEB", "OBJECT_ID": "1997-051AAK", "EPOCH": "2025-12-25T20:21:50.179680", "MEAN_MOTION": 14.54348903, "ECCENTRICITY": 0.00065112, "INCLINATION": 86.3769, "RA_OF_ASC_NODE": 37.534, "ARG_OF_PERICENTER": 359.9142, "MEAN_ANOMALY": 0.2063, "EPHEMERIS_TYPE": 0, "CLASSIFICATION_TYPE": "U", "NORAD_CAT_ID": 39778, "ELEMENT_SET_NO": 999, "REV_AT_EPOCH": 60883, "BSTAR": 0.00084026877, "MEAN_MOTION_DOT": 3.588e-05, "MEAN_MOTION_DDOT": 0}, "tle": {"line1": "1 39778U 97051AAK 25359.84849745  .00003588  00000+0  84027-3 0  9996", "line2": "2 39778  86.3769  37.5340 0006511 359.9142   0.2063 14.54348903608830"}}, "geometry": {"type": "Point", "coordinates": [90.32427476311057, 85.48881859750404]}}]}